{
    "links": {
        "self": "http://www.neowsapp.com/rest/v1/neo/3297369?api_key=iIulBulltgU6a56xZRHN4H3l9WmuAYTsLGpBGhQ2"
    },
    "id": "3297369",
    "neo_reference_id": "3297369",
    "name": "(2005 UU6)",
    "designation": "2005 UU6",
    "nasa_jpl_url": "http://ssd.jpl.nasa.gov/sbdb.cgi?sstr=3297369",
    "absolute_magnitude_h": 22.9,
    "estimated_diameter": {
        "kilometers": {
            "estimated_diameter_min": 0.0699125232,
            "estimated_diameter_max": 0.1563291544
        },
        "meters": {
            "estimated_diameter_min": 69.9125232246,
            "estimated_diameter_max": 156.3291544087
        },
        "miles": {
            "estimated_diameter_min": 0.0434416145,
            "estimated_diameter_max": 0.097138403
        },
        "feet": {
            "estimated_diameter_min": 229.3718026961,
            "estimated_diameter_max": 512.8909429502
        }
    },
    "is_potentially_hazardous_asteroid": false,
    "close_approach_data": [
        {
            "close_approach_date": "2005-10-29",
            "close_approach_date_full": "2005-Oct-29 18:11",
            "epoch_date_close_approach": 1130609460000,
            "relative_velocity": {
                "kilometers_per_second": "9.6149111821",
                "kilometers_per_hour": "34613.6802554375",
                "miles_per_hour": "21507.5948231633"
            },
            "miss_distance": {
                "astronomical": "0.2430701705",
                "lunar": "94.5542963245",
                "kilometers": "36362779.767336835",
                "miles": "22594783.613384923"
            },
            "orbiting_body": "Earth"
        }
    ],
    "orbital_data": {
        "orbit_id": "8",
        "orbit_determination_date": "2017-04-06 09:10:03",
        "first_observation_date": "2005-10-29",
        "last_observation_date": "2005-11-10",
        "data_arc_in_days": 12,
        "observations_used": 19,
        "orbit_uncertainty": "8",
        "minimum_orbit_intersection": ".240224",
        "jupiter_tisserand_invariant": "3.241",
        "epoch_osculation": "2453675.5",
        "eccentricity": ".5035494894582218",
        "semi_major_axis": "2.477480854383209",
        "inclination": "16.86284693987792",
        "ascending_node_longitude": "212.7423066871542",
        "orbital_period": "1424.340710199242",
        "perihelion_distance": "1.229946635016025",
        "perihelion_argument": "190.0953273212662",
        "aphelion_distance": "3.725015073750393",
        "perihelion_time": "2453682.299161977154",
        "mean_anomaly": "358.28152190396",
        "mean_motion": ".2527485154515044",
        "equinox": "J2000",
        "orbit_class": {
            "orbit_class_type": "AMO",
            "orbit_class_description": "Near-Earth asteroid orbits similar to that of 1221 Amor",
            "orbit_class_range": "1.017 AU < q (perihelion) < 1.3 AU"
        }
    },
    "is_sentry_object": false
}